satname,norad_id,inclination_deg,eccentricity,mean_motion_rev_per_day,perigee_km,apogee_km,l1,l2
STARLINK-1008,44714,53.0528,0.0001283,15.06401151,546.3195085239122,548.0965520586851,1 44714U 19074B   25288.80330014  .00000602  00000+0  59315-4 0  9999,2 44714  53.0528 117.0371 0001283  90.9017 269.2119 15.06401151326910
STARLINK-1010,44716,53.046,0.0002454,15.88811534,303.97365287980847,307.2540377947007,1 44716U 19074D   25288.91672454  .00226885  00000+0  76761-3 0  9996,2 44716  53.0460  51.7393 0002454  67.8704 139.1224 15.88811534  6054
STARLINK-1011,44717,53.0488,0.0003412,15.77787115,334.4206927922278,339.00290561280417,1 44717U 19074E   25288.91672454  .00316293  00000+0  17796-2 0  9992,2 44717  53.0488 107.4612 0003412 167.4572 354.8176 15.77787115  6016
STARLINK-1012,44718,53.052,0.0001609,15.06412865,546.057846607956,548.2864110856199,1 44718U 19074F   25288.84755250  .00007566  00000+0  52612-3 0  9998,2 44718  53.0520 116.8406 0001609 104.7824 255.3343 15.06412865326913
STARLINK-1017,44723,53.0503,0.0004979,15.13273148,522.7884373398729,529.663802134507,1 44723U 19074L   25288.83598271  .00035121  00000+0  19583-2 0  9998,2 44723  53.0503 114.3352 0004979 129.4303 230.7131 15.13273148326955
STARLINK-1019,44724,53.0538,0.0002036,15.06382811,545.8542285560434,548.6742519410736,1 44724U 19074M   25288.84385691  .00002934  00000+0  21586-3 0  9993,2 44724  53.0538 116.8582 0002036 102.2457 257.8760 15.06382811326911
STARLINK-1020,44725,53.0536,0.0001319,15.06398463,546.3028145297831,548.1297227220457,1 44725U 19074N   25288.84938399  .00000409  00000+0  46342-4 0  9996,2 44725  53.0536 136.8330 0001319  89.9492 270.1648 15.06398463326638
STARLINK-1029,44734,53.0435,0.0004901,16.18312,220.90316592126146,227.37471679898317,1 44734U 19074X   25288.81600529  .01487049  19168-2  88465-3 0  9993,2 44734  53.0435 326.5466 0004901  21.4512 338.6729 16.18312000328996
STARLINK-1031,44736,53.0519,0.0008913,15.43489796,429.7458463278999,441.8924045170779,1 44736U 19074Z   25288.91672454  .00180515  00000+0  38792-2 0  9998,2 44736  53.0519 110.1771 0008913 139.2821  18.5440 15.43489796  5625
STARLINK-1036,44741,53.0525,0.0001452,15.06391208,546.2329397598351,548.2440688062779,1 44741U 19074AE  25288.87887697  .00000051  00000+0  22338-4 0  9993,2 44741  53.0525 136.7013 0001452  95.5168 264.5986 15.06391208326645
STARLINK-1039,44744,53.0516,0.0007316,15.11509583,526.5403934696915,536.6507141424199,1 44744U 19074AH  25288.60796203  .00033230  00000+0  19468-2 0  9992,2 44744  53.0516 156.5178 0007316  95.3323 264.8503 15.11509583326344
STARLINK-1042,44747,53.047,0.0003238,15.42225814,437.3341209161881,441.74924963277317,1 44747U 19074AL  25288.65398251  .00025344  00000+0  58853-3 0  9990,2 44747  53.0470  66.6582 0003238  80.1630 279.9740 15.42225814327637
STARLINK-1043,44748,53.0538,0.0001614,15.06398021,546.09987105869,548.33537553109,1 44748U 19074AM  25288.65218872  .00002334  00000+0  17556-3 0  9990,2 44748  53.0538 157.7207 0001614  76.0044 284.1124 15.06398021326339
STARLINK-1046,44751,53.054,0.0001469,15.06396982,546.2034726270986,548.2381427509972,1 44751U 19074AQ  25288.66692977  .00000825  00000+0  74250-4 0  9995,2 44751  53.0540 157.6510 0001469  92.3097 267.8060 15.06396982326330
STARLINK-1047,44752,53.0717,0.000494,15.28771165,476.09697054572825,482.87230072173406,1 44752U 19074AR  25288.87566719  .00012452  00000+0  45098-3 0  9999,2 44752  53.0717 100.5994 0004940 120.3187 239.8301 15.28771165327162
STARLINK-1048,44753,53.0533,0.0001341,15.06400429,546.2815540500742,548.1389321806773,1 44753U 19074AS  25288.82542045  .00000189  00000+0  31566-4 0  9991,2 44753  53.0533 116.9385 0001341  89.3069 270.8073 15.06400429326910
STARLINK-1053,44758,53.0406,3.15e-05,15.5827795,392.42746109080963,392.8540200884663,1 44758U 19074AX  25288.83900611  .00058363  00000+0  75787-3 0  9993,2 44758  53.0406  81.1109 0000315 141.3468 218.7566 15.58277950327437
STARLINK-1054,44759,53.0394,0.0003661,15.79199096,330.25181026707924,335.1654914526389,1 44759U 19074AY  25288.91672454  .00376649  00000+0  19743-2 0  9993,2 44759  53.0394 107.6145 0003661 132.0074 308.3179 15.79199096  6016
STARLINK-1056,44761,53.0375,0.0001756,15.91761235,296.18194786097683,298.52638035781274,1 44761U 19074BA  25288.91672454  .00383894  67129-4  11537-2 0  9999,2 44761  53.0375  94.8228 0001756 111.2672 209.5789 15.91761235  6049
STARLINK-1060,44765,53.0546,5.74e-05,15.59646594,388.2906841996837,389.06751468789935,1 44765U 19074BE  25288.81718206  .00048245  00000+0  59678-3 0  9995,2 44765  53.0546 127.5377 0000574  69.9341 290.1733 15.59646594326764
STARLINK-1063,44768,53.0533,0.0001405,15.06402821,546.2299017354335,548.1759222507044,1 44768U 19074BH  25288.85491183  .00003983  00000+0  28611-3 0  9997,2 44768  53.0533 156.8083 0001405  87.4171 272.6979 15.06402821326371
STARLINK-1067,44771,53.0522,0.0002161,15.06398127,545.7207293555748,548.7138674833532,1 44771U 19074BL  25287.64963191  .00006975  00000+0  48674-3 0  9995,2 44771  53.0522 162.2197 0002161  86.3045 273.8191 15.06398127326189
STARLINK-1068,44772,53.0532,0.0001425,15.06393408,546.2448964940104,548.2186265910505,1 44772U 19074BM  25288.83464554 -.00000171  00000+0  73846-5 0  9991,2 44772  53.0532 136.8996 0001425  91.9620 268.1533 15.06393408326632
STARLINK-1112,44925,53.05,0.0003025,15.51413036,410.54537768433875,414.653773312516,1 44925U 20001M   25288.91672454  .00162421  00000+0  26618-2 0  9990,2 44925  53.0500 239.4996 0003025 103.8707  39.5430 15.51413036  5948
STARLINK-1114,44927,53.0554,0.0001633,15.06398585,546.0849845851681,548.3468048405821,1 44927U 20001P   25288.40891168  .00000361  00000+0  43125-4 0  9999,2 44927  53.0554 278.8123 0001633  95.5964 264.5211 15.06398585317958
STARLINK-1123,44930,53.0553,0.0001706,15.06393912,546.0487491970916,548.4116844914788,1 44930U 20001S   25288.68904150 -.00000282  00000+0 -31035-7 0  9993,2 44930  53.0553 277.5538 0001706  87.0862 273.0322 15.06393912317992
STARLINK-1144,44933,53.0446,0.001274,15.55957679,390.73565849873467,408.00474685115023,1 44933U 20001V   25288.23467457  .00154158  00000+0  21385-2 0  9993,2 44933  53.0446 220.4086 0012740  37.8928 322.2977 15.55957679320051
STARLINK-1091,44940,53.0389,0.0002416,15.89871624,301.0283907194298,304.25654335790296,1 44940U 20001AC  25288.91672454  .00269467  00000+0  85976-3 0  9998,2 44940  53.0389 197.4028 0002416 123.5516  40.0387 15.89871624  5994
STARLINK-1094,44941,53.055,0.0001274,15.06397255,546.3376805025973,548.1022614588028,1 44941U 20001AD  25288.63559154  .00000614  00000+0  60109-4 0  9998,2 44941  53.0550 257.7934 0001274  96.9886 263.1248 15.06397255318268
STARLINK-1096,44942,52.9907,0.000546,15.83700865,316.32811049585143,323.6424600313594,1 44942U 20001AE  25288.91672454  .00122393  00000+0  53835-3 0  9995,2 44942  52.9907  24.4323 0005460 346.6065 172.2017 15.83700865  6043
STARLINK-1122,44949,53.0557,0.0001683,15.06395583,546.0595569995294,548.3906338808538,1 44949U 20001AM  25288.65771965 -.00000115  00000+0  11155-4 0  9998,2 44949  53.0557 257.6879 0001683  92.0567 268.0615 15.06395583318261
STARLINK-1080,44961,53.0534,0.0001765,15.06392276,546.0129027882003,548.4575591857383,1 44961U 20001AZ  25288.19144059 -.00003202  00000+0 -19616-3 0  9999,2 44961  53.0534 239.7868 0001765  87.2875 272.8316 15.06392276318489
STARLINK-1090,44968,53.0531,0.0001419,15.06400232,546.22814003231,548.1935537512582,1 44968U 20001BG  25288.59320586  .00003258  00000+0  23753-3 0  9997,2 44968  53.0531 237.9839 0001419  88.5436 271.5715 15.06400232318542
STARLINK-1107,44972,53.01,0.0006754,15.62693346,375.31645623702025,384.4451867102671,1 44972U 20001BL  25288.91672454  .00118660  00000+0  12847-2 0  9997,2 44972  53.0100 157.6654 0006754 159.6322 233.7090 15.62693346  5937
STARLINK-1132,45044,53.056,0.0001558,15.06393613,546.1521608873854,548.310105597704,1 45044U 20006A   25288.48632095  .00000547  00000+0  55594-4 0  9994,2 45044  53.0560 198.4646 0001558  91.4678 268.6489 15.06393613314851
STARLINK-1131,45047,53.0541,0.0001623,15.06399789,546.0882204470536,548.3361887988731,1 45047U 20006D   25288.52877196  .00005603  00000+0  39472-3 0  9999,2 45047  53.0541 218.8139 0001623  89.3748 270.7427 15.06399789314579
STARLINK-1134,45048,53.034,0.0011445,15.2603894,479.8095536828341,495.5253801075578,1 45048U 20006E   25288.77141174  .00042193  00000+0  16188-2 0  9990,2 45048  53.0340 197.7804 0011445  90.5295 269.7014 15.26038940314891
STARLINK-1156,45054,53.0524,0.0001374,15.06392792,546.2821035809811,548.1851954354661,1 45054U 20006L   25288.83095319  .00009204  00000+0  63607-3 0  9998,2 45054  53.0524 216.9170 0001374  91.9085 268.2061 15.06392792314627
STARLINK-1159,45057,53.055,0.0001941,15.06423588,545.7950689358568,548.4834611819524,1 45057U 20006P   25288.77933983  .00020651  00000+0  14003-2 0  9996,2 45057  53.0550 217.1479 0001941 101.6659 258.4548 15.06423588314629
STARLINK-1166,45060,53.0532,0.0001354,15.06395821,546.2866720720449,548.1620599299586,1 45060U 20006S   25288.19328252  .00003402  00000+0  24721-3 0  9997,2 45060  53.0532 219.7816 0001354  89.6156 270.4988 15.06395821314531
STARLINK-1169,45061,53.0561,0.0001548,15.06429272,546.0498148577572,548.1938749961464,1 45061U 20006T   25288.79775269  .00006245  00000+0  43743-3 0  9991,2 45061  53.0561 217.0661 0001548  94.2279 265.8887 15.06429272314620
STARLINK-1171,45062,53.0542,0.0001769,15.15614998,517.8919867351551,520.3322334703107,1 45062U 20006U   25288.91672454  .01838916  00000+0  86821-1 0  9999,2 45062  53.0542 216.3595 0001769  82.7368   9.7722 15.15614998  5692
STARLINK-1133,45064,53.0533,0.0001384,15.06383379,546.3040240870905,548.2209746685185,1 45064U 20006W   25288.19881875 -.00000171  00000+0  73902-5 0  9994,2 45064  53.0533 199.7510 0001384 114.2787 245.8346 15.06383379314812
